start=new Date('2021-11-30T00:00:00.000Z').valueOf();
sats=[{"ARG_OF_PERICENTER":"58.0439","EPOCH":"2021-11-29T21:22:38.051616","SITE":"AFETR","RA_OF_ASC_NODE":"288.3042","COUNTRY_CODE":"US","MEAN_MOTION_DDOT":"0.0000000000000","REV_AT_EPOCH":"2846","NORAD_CAT_ID":"48646","SEMIMAJOR_AXIS":"6925.335","PERIOD":"95.592","ELEMENT_SET_NO":"999","GP_ID":"190751092","TLE_LINE2":"2 48646  53.0559 288.3042 0002336  58.0439 302.0777 15.06404565 28469","DECAY_DATE":null,"PERIAPSIS":"545.582","EPHEMERIS_TYPE":"0","RCS_SIZE":"LARGE","INCLINATION":"53.0559","MEAN_ANOMALY":"302.0777","MEAN_ELEMENT_THEORY":"SGP4","MEAN_MOTION":"15.06404565","CLASSIFICATION_TYPE":"U","MEAN_MOTION_DOT":"0.00001642","LAUNCH_DATE":"2021-05-26","ECCENTRICITY":"0.00023360","BSTAR":"0.00012912000000","OBJECT_NAME":"STARLINK-2732","OBJECT_ID":"2021-044J","TIME_SYSTEM":"UTC","CENTER_NAME":"EARTH","OBJECT_TYPE":"PAYLOAD","REF_FRAME":"TEME","APOAPSIS":"548.817","TLE_LINE1":"1 48646U 21044J   21333.89071819  .00001642  00000-0  12912-3 0  9995","FILE":"3227094"},{"CENTER_NAME":"EARTH","OBJECT_TYPE":"PAYLOAD","REF_FRAME":"TEME","OBJECT_ID":"2021-044K","TIME_SYSTEM":"UTC","APOAPSIS":"548.610","TLE_LINE1":"1 48647U 21044K   21333.62163470 -.00003138  00000-0 -19168-3 0  9996","FILE":"3227094","MEAN_MOTION":"15.06428486","PERIAPSIS":"545.643","RCS_SIZE":"LARGE","INCLINATION":"53.0559","EPHEMERIS_TYPE":"0","MEAN_ELEMENT_THEORY":"SGP4","MEAN_ANOMALY":"300.0544","MEAN_MOTION_DOT":"-0.00003138","CLASSIFICATION_TYPE":"U","LAUNCH_DATE":"2021-05-26","BSTAR":"-0.00019168000000","ECCENTRICITY":"0.00021420","OBJECT_NAME":"STARLINK-2691","PERIOD":"95.590","GP_ID":"190751856","ELEMENT_SET_NO":"999","REV_AT_EPOCH":"2842","NORAD_CAT_ID":"48647","SEMIMAJOR_AXIS":"6925.261","TLE_LINE2":"2 48647  53.0559 289.5224 0002142  60.0657 300.0544 15.06428486 28429","DECAY_DATE":null,"ARG_OF_PERICENTER":"60.0657","EPOCH":"2021-11-29T14:55:09.238080","MEAN_MOTION_DDOT":"0.0000000000000","SITE":"AFETR","COUNTRY_CODE":"US","RA_OF_ASC_NODE":"289.5224"},{"FILE":"3227094","TLE_LINE1":"1 48648U 21044L   21333.62069990  .00002738  00000-0  20263-3 0  9990","APOAPSIS":"548.703","OBJECT_ID":"2021-044L","TIME_SYSTEM":"UTC","OBJECT_TYPE":"PAYLOAD","REF_FRAME":"TEME","CENTER_NAME":"EARTH","OBJECT_NAME":"STARLINK-2521","CLASSIFICATION_TYPE":"U","MEAN_MOTION_DOT":"0.00002738","ECCENTRICITY":"0.00021800","LAUNCH_DATE":"2021-05-26","BSTAR":"0.00020263000000","INCLINATION":"53.0562","RCS_SIZE":"LARGE","EPHEMERIS_TYPE":"0","MEAN_ELEMENT_THEORY":"SGP4","MEAN_ANOMALY":"300.8704","PERIAPSIS":"545.684","MEAN_MOTION":"15.06406519","DECAY_DATE":null,"TLE_LINE2":"2 48648  53.0562 289.5241 0002180  59.2499 300.8704 15.06406519 28428","SEMIMAJOR_AXIS":"6925.329","REV_AT_EPOCH":"2842","NORAD_CAT_ID":"48648","PERIOD":"95.592","GP_ID":"190751497","ELEMENT_SET_NO":"999","RA_OF_ASC_NODE":"289.5241","COUNTRY_CODE":"US","SITE":"AFETR","MEAN_MOTION_DDOT":"0.0000000000000","EPOCH":"2021-11-29T14:53:48.471360","ARG_OF_PERICENTER":"59.2499"},{"REF_FRAME":"TEME","OBJECT_TYPE":"PAYLOAD","CENTER_NAME":"EARTH","TIME_SYSTEM":"UTC","OBJECT_ID":"2021-044M","FILE":"3227094","TLE_LINE1":"1 48649U 21044M   21333.61796514 -.00000211  00000-0  47738-5 0  9992","APOAPSIS":"548.492","MEAN_MOTION":"15.06393241","MEAN_ANOMALY":"298.7746","MEAN_ELEMENT_THEORY":"SGP4","RCS_SIZE":"LARGE","INCLINATION":"53.0542","EPHEMERIS_TYPE":"0","PERIAPSIS":"545.977","OBJECT_NAME":"STARLINK-2673","LAUNCH_DATE":"2021-05-26","ECCENTRICITY":"0.00018160","BSTAR":"0.00000477380000","CLASSIFICATION_TYPE":"U","MEAN_MOTION_DOT":"-0.00000211","ELEMENT_SET_NO":"999","GP_ID":"190751729","PERIOD":"95.593","SEMIMAJOR_AXIS":"6925.369","NORAD_CAT_ID":"48649","REV_AT_EPOCH":"2841","DECAY_DATE":null,"TLE_LINE2":"2 48649  53.0542 289.5366 0001816  61.3426 298.7746 15.06393241 28411","EPOCH":"2021-11-29T14:49:52.188096","ARG_OF_PERICENTER":"61.3426","MEAN_MOTION_DDOT":"0.0000000000000","COUNTRY_CODE":"US","RA_OF_ASC_NODE":"289.5366","SITE":"AFETR"},{"OBJECT_NAME":"STARLINK-2672","ECCENTRICITY":"0.00020850","LAUNCH_DATE":"2021-05-26","BSTAR":"0.00012897000000","MEAN_MOTION_DOT":"0.00001640","CLASSIFICATION_TYPE":"U","MEAN_MOTION":"15.06400150","MEAN_ANOMALY":"303.0843","MEAN_ELEMENT_THEORY":"SGP4","RCS_SIZE":"LARGE","INCLINATION":"53.0566","EPHEMERIS_TYPE":"0","PERIAPSIS":"545.769","FILE":"3226898","TLE_LINE1":"1 48650U 21044N   21333.28253719  .00001640  00000-0  12897-3 0  9994","APOAPSIS":"548.657","REF_FRAME":"TEME","OBJECT_TYPE":"PAYLOAD","CENTER_NAME":"EARTH","OBJECT_ID":"2021-044N","TIME_SYSTEM":"UTC","MEAN_MOTION_DDOT":"0.0000000000000","RA_OF_ASC_NODE":"291.0424","COUNTRY_CODE":"US","SITE":"AFETR","EPOCH":"2021-11-29T06:46:51.213216","ARG_OF_PERICENTER":"57.0346","DECAY_DATE":null,"TLE_LINE2":"2 48650  53.0566 291.0424 0002085  57.0346 303.0843 15.06400150 28364","GP_ID":"190723401","ELEMENT_SET_NO":"999","PERIOD":"95.592","SEMIMAJOR_AXIS":"6925.348","NORAD_CAT_ID":"48650","REV_AT_EPOCH":"2836"},{"APOAPSIS":"548.438","TLE_LINE1":"1 48651U 21044P   21333.27885895  .00000704  00000-0  66144-4 0  9995","FILE":"3226898","OBJECT_ID":"2021-044P","TIME_SYSTEM":"UTC","CENTER_NAME":"EARTH","OBJECT_TYPE":"PAYLOAD","REF_FRAME":"TEME","CLASSIFICATION_TYPE":"U","MEAN_MOTION_DOT":"0.00000704","LAUNCH_DATE":"2021-05-26","BSTAR":"0.00006614400000","ECCENTRICITY":"0.00017610","OBJECT_NAME":"STARLINK-2731","PERIAPSIS":"545.999","RCS_SIZE":"LARGE","EPHEMERIS_TYPE":"0","INCLINATION":"53.0535","MEAN_ELEMENT_THEORY":"SGP4","MEAN_ANOMALY":"296.5442","MEAN_MOTION":"15.06398465","TLE_LINE2":"2 48651  53.0535 291.0496 0001761  63.5728 296.5442 15.06398465 28362","DECAY_DATE":null,"REV_AT_EPOCH":"2836","NORAD_CAT_ID":"48651","SEMIMAJOR_AXIS":"6925.353","PERIOD":"95.592","GP_ID":"190723891","ELEMENT_SET_NO":"999","SITE":"AFETR","RA_OF_ASC_NODE":"291.0496","COUNTRY_CODE":"US","MEAN_MOTION_DDOT":"0.0000000000000","ARG_OF_PERICENTER":"63.5728","EPOCH":"2021-11-29T06:41:33.413280"},{"FILE":"3227094","TLE_LINE1":"1 48652U 21044Q   21333.87228645  .00001305  00000-0  10647-3 0  9990","APOAPSIS":"548.511","TIME_SYSTEM":"UTC","OBJECT_ID":"2021-044Q","OBJECT_TYPE":"PAYLOAD","REF_FRAME":"TEME","CENTER_NAME":"EARTH","OBJECT_NAME":"STARLINK-2727","MEAN_MOTION_DOT":"0.00001305","CLASSIFICATION_TYPE":"U","ECCENTRICITY":"0.00018910","LAUNCH_DATE":"2021-05-26","BSTAR":"0.00010647000000","RCS_SIZE":"LARGE","INCLINATION":"53.0512","EPHEMERIS_TYPE":"0","MEAN_ELEMENT_THEORY":"SGP4","MEAN_ANOMALY":"310.8112","PERIAPSIS":"545.891","MEAN_MOTION":"15.06404090","DECAY_DATE":null,"TLE_LINE2":"2 48652  53.0512 288.3874 0001891  49.3040 310.8112 15.06404090 28456","SEMIMAJOR_AXIS":"6925.336","REV_AT_EPOCH":"2845","NORAD_CAT_ID":"48652","PERIOD":"95.592","ELEMENT_SET_NO":"999","GP_ID":"190751221","COUNTRY_CODE":"US","RA_OF_ASC_NODE":"288.3874","SITE":"AFETR","MEAN_MOTION_DDOT":"0.0000000000000","EPOCH":"2021-11-29T20:56:05.549280","ARG_OF_PERICENTER":"49.3040"},{"FILE":"3227074","APOAPSIS":"548.606","TLE_LINE1":"1 48653U 21044R   21333.27147985  .00001603  00000-0  12650-3 0  9999","OBJECT_TYPE":"PAYLOAD","REF_FRAME":"TEME","CENTER_NAME":"EARTH","OBJECT_ID":"2021-044R","TIME_SYSTEM":"UTC","OBJECT_NAME":"STARLINK-2720","MEAN_MOTION_DOT":"0.00001603","CLASSIFICATION_TYPE":"U","ECCENTRICITY":"0.00020410","LAUNCH_DATE":"2021-05-26","BSTAR":"0.00012650000000","MEAN_MOTION":"15.06406794","RCS_SIZE":"LARGE","INCLINATION":"53.0559","EPHEMERIS_TYPE":"0","MEAN_ELEMENT_THEORY":"SGP4","MEAN_ANOMALY":"301.4080","PERIAPSIS":"545.779","DECAY_DATE":null,"TLE_LINE2":"2 48653  53.0559 291.0886 0002041  58.7109 301.4080 15.06406794 29207","PERIOD":"95.592","ELEMENT_SET_NO":"999","GP_ID":"190727930","SEMIMAJOR_AXIS":"6925.328","REV_AT_EPOCH":"2920","NORAD_CAT_ID":"48653","MEAN_MOTION_DDOT":"0.0000000000000","RA_OF_ASC_NODE":"291.0886","COUNTRY_CODE":"US","SITE":"AFETR","EPOCH":"2021-11-29T06:30:55.859040","ARG_OF_PERICENTER":"58.7109"},{"SEMIMAJOR_AXIS":"6925.335","NORAD_CAT_ID":"48654","REV_AT_EPOCH":"2845","GP_ID":"190751093","ELEMENT_SET_NO":"999","PERIOD":"95.592","DECAY_DATE":null,"TLE_LINE2":"2 48654  53.0552 288.4382 0001994  60.9143 299.2045 15.06404497 28450","EPOCH":"2021-11-29T20:45:29.214144","ARG_OF_PERICENTER":"60.9143","RA_OF_ASC_NODE":"288.4382","COUNTRY_CODE":"US","SITE":"AFETR","MEAN_MOTION_DDOT":"0.0000000000000","OBJECT_ID":"2021-044S","TIME_SYSTEM":"UTC","REF_FRAME":"TEME","OBJECT_TYPE":"PAYLOAD","CENTER_NAME":"EARTH","FILE":"3227094","APOAPSIS":"548.581","TLE_LINE1":"1 48654U 21044S   21333.86492146  .00001287  00000-0  10526-3 0  9995","MEAN_ELEMENT_THEORY":"SGP4","MEAN_ANOMALY":"299.2045","RCS_SIZE":"LARGE","INCLINATION":"53.0552","EPHEMERIS_TYPE":"0","PERIAPSIS":"545.819","MEAN_MOTION":"15.06404497","OBJECT_NAME":"STARLINK-2651","LAUNCH_DATE":"2021-05-26","ECCENTRICITY":"0.00019940","BSTAR":"0.00010526000000","CLASSIFICATION_TYPE":"U","MEAN_MOTION_DOT":"0.00001287"},{"MEAN_MOTION_DOT":"-0.00002380","CLASSIFICATION_TYPE":"U","BSTAR":"-0.00014087000000","LAUNCH_DATE":"2021-05-26","ECCENTRICITY":"0.00018060","OBJECT_NAME":"STARLINK-2657","PERIAPSIS":"545.906","RCS_SIZE":"LARGE","EPHEMERIS_TYPE":"0","INCLINATION":"53.0556","MEAN_ANOMALY":"301.3346","MEAN_ELEMENT_THEORY":"SGP4","MEAN_MOTION":"15.06418600","TLE_LINE1":"1 48655U 21044T   21333.26410435 -.00002380  00000-0 -14087-3 0  9994","APOAPSIS":"548.407","FILE":"3226898","OBJECT_ID":"2021-044T","TIME_SYSTEM":"UTC","CENTER_NAME":"EARTH","OBJECT_TYPE":"PAYLOAD","REF_FRAME":"TEME","SITE":"AFETR","RA_OF_ASC_NODE":"291.1279","COUNTRY_CODE":"US","MEAN_MOTION_DDOT":"0.0000000000000","ARG_OF_PERICENTER":"58.7820","EPOCH":"2021-11-29T06:20:18.615840","TLE_LINE2":"2 48655  53.0556 291.1279 0001806  58.7820 301.3346 15.06418600 28360","DECAY_DATE":null,"REV_AT_EPOCH":"2836","NORAD_CAT_ID":"48655","SEMIMAJOR_AXIS":"6925.292","PERIOD":"95.591","GP_ID":"190723658","ELEMENT_SET_NO":"999"}];
